[{"OBJECT_NAME":"STARLINK-30450","OBJECT_ID":"2023-147A","EPOCH":"2026-03-09T22:00:01.999584","MEAN_MOTION":15.26753138,"ECCENTRICITY":0.00016139,"INCLINATION":42.9999,"RA_OF_ASC_NODE":323.5204,"ARG_OF_PERICENTER":272.0502,"MEAN_ANOMALY":227.1858,"EPHEMERIS_TYPE":0,"CLASSIFICATION_TYPE":"U","NORAD_CAT_ID":57913,"ELEMENT_SET_NO":999,"REV_AT_EPOCH":567,"BSTAR":-0.00036162797,"MEAN_MOTION_DOT":-9.951e-5,"MEAN_MOTION_DDOT":0},{"OBJECT_NAME":"FLOCK 4G-3","OBJECT_ID":"2025-009AG","EPOCH":"2026-03-09T19:14:30.392160","MEAN_MOTION":15.2717931,"ECCENTRICITY":0.00013196,"INCLINATION":97.4062,"RA_OF_ASC_NODE":151.4068,"ARG_OF_PERICENTER":293.2042,"MEAN_ANOMALY":66.9058,"EPHEMERIS_TYPE":0,"CLASSIFICATION_TYPE":"U","NORAD_CAT_ID":62639,"ELEMENT_SET_NO":999,"REV_AT_EPOCH":6372,"BSTAR":0.0004338875,"MEAN_MOTION_DOT":0.00011494,"MEAN_MOTION_DDOT":0}]
